[{"OBJECT_NAME":"LEO EXPRESS 1","OBJECT_ID":"2023-174AX","EPOCH":"2026-03-09T18:25:46.135776","MEAN_MOTION":15.32756831,"ECCENTRICITY":0.00787345,"INCLINATION":97.5222,"RA_OF_ASC_NODE":152.4092,"ARG_OF_PERICENTER":115.921,"MEAN_ANOMALY":245.0174,"EPHEMERIS_TYPE":0,"CLASSIFICATION_TYPE":"U","NORAD_CAT_ID":58301,"ELEMENT_SET_NO":999,"REV_AT_EPOCH":12965,"BSTAR":0.00049741019,"MEAN_MOTION_DOT":0.00017303,"MEAN_MOTION_DDOT":0},{"OBJECT_NAME":"STARLINK-34120","OBJECT_ID":"2025-095J","EPOCH":"2026-03-09T18:11:37.524480","MEAN_MOTION":15.27671911,"ECCENTRICITY":0.00017161,"INCLINATION":43.0014,"RA_OF_ASC_NODE":175.368,"ARG_OF_PERICENTER":266.8554,"MEAN_ANOMALY":93.2101,"EPHEMERIS_TYPE":0,"CLASSIFICATION_TYPE":"U","NORAD_CAT_ID":63898,"ELEMENT_SET_NO":999,"REV_AT_EPOCH":4780,"BSTAR":0.0014886739,"MEAN_MOTION_DOT":0.00041047,"MEAN_MOTION_DDOT":0}]
